{
  "type": "FeatureCollection",
  "features": [
    {
      "type": "Feature",
      "properties": {},
      "geometry": {
        "type": "Polygon",
        "coordinates": [
          [
            [
              17.763562,
              59.406123
            ],
            [
              17.77472,
              59.403808
            ],
            [
              17.777252,
              59.402148
            ],
            [
              17.780728,
              59.400051
            ],
            [
              17.784076,
              59.399351
            ],
            [
              17.797379,
              59.399985
            ],
            [
              17.806778,
              59.395987
            ],
            [
              17.811499,
              59.398084
            ],
            [
              17.80931,
              59.401864
            ],
            [
              17.822528,
              59.404944
            ],
            [
              17.832484,
              59.404594
            ],
            [
              17.849565,
              59.41036
            ],
            [
              17.85965,
              59.412719
            ],
            [
              17.853942,
              59.417719
            ],
            [
              17.861366,
              59.421016
            ],
            [
              17.861238,
              59.422653
            ],
            [
              17.863727,
              59.422741
            ],
            [
              17.924409,
              59.438084
            ],
            [
              17.947884,
              59.447868
            ],
            [
              17.954407,
              59.439123
            ],
            [
              17.971916,
              59.429215
            ],
            [
              17.9917,
              59.417806
            ],
            [
              17.998996,
              59.423177
            ],
            [
              18.002086,
              59.426255
            ],
            [
              18.010368,
              59.427478
            ],
            [
              17.998009,
              59.439036
            ],
            [
              18.006248,
              59.441392
            ],
            [
              18.025732,
              59.436723
            ],
            [
              18.029509,
              59.43214
            ],
            [
              18.035302,
              59.432105
            ],
            [
              18.032942,
              59.437866
            ],
            [
              18.038392,
              59.440223
            ],
            [
              18.06251,
              59.436819
            ],
            [
              18.075857,
              59.433262
            ],
            [
              18.087788,
              59.434113
            ],
            [
              18.106327,
              59.425661
            ],
            [
              18.145809,
              59.402882
            ],
            [
              18.157396,
              59.391827
            ],
            [
              18.19911,
              59.386626
            ],
            [
              18.276443,
              59.371132
            ],
            [
              18.305626,
              59.363964
            ],
            [
              18.309274,
              59.361252
            ],
            [
              18.316741,
              59.356397
            ],
            [
              18.319917,
              59.352153
            ],
            [
              18.336096,
              59.337274
            ],
            [
              18.34558,
              59.333027
            ],
            [
              18.359957,
              59.325825
            ],
            [
              18.354936,
              59.321534
            ],
            [
              18.345108,
              59.319782
            ],
            [
              18.303738,
              59.305914
            ],
            [
              18.298051,
              59.308716
            ],
            [
              18.291528,
              59.305736
            ],
            [
              18.289168,
              59.304203
            ],
            [
              18.279598,
              59.301289
            ],
            [
              18.276079,
              59.300007
            ],
            [
              18.275349,
              59.298255
            ],
            [
              18.25357,
              59.298287
            ],
            [
              18.235009,
              59.298123
            ],
            [
              18.224924,
              59.299701
            ],
            [
              18.173919,
              59.300901
            ],
            [
              18.152676,
              59.300603
            ],
            [
              18.149071,
              59.294556
            ],
            [
              18.176365,
              59.286105
            ],
            [
              18.258762,
              59.267951
            ],
            [
              18.280563,
              59.226081
            ],
            [
              18.188896,
              59.208159
            ],
            [
              18.17276,
              59.219493
            ],
            [
              18.122292,
              59.223973
            ],
            [
              18.073711,
              59.233546
            ],
            [
              18.052425,
              59.246996
            ],
            [
              18.015261,
              59.228778
            ],
            [
              17.975006,
              59.234398
            ],
            [
              17.881279,
              59.254808
            ],
            [
              17.853556,
              59.268012
            ],
            [
              17.780685,
              59.259178
            ],
            [
              17.713394,
              59.269969
            ],
            [
              17.679749,
              59.271144
            ],
            [
              17.647133,
              59.278862
            ],
            [
              17.593575,
              59.315814
            ],
            [
              17.549629,
              59.374718
            ],
            [
              17.504997,
              59.414134
            ],
            [
              17.524395,
              59.428979
            ],
            [
              17.514782,
              59.461268
            ],
            [
              17.558212,
              59.469902
            ],
            [
              17.567482,
              59.450538
            ],
            [
              17.607136,
              59.458738
            ],
            [
              17.660522,
              59.448094
            ],
            [
              17.743607,
              59.415095
            ],
            [
              17.763562,
              59.406123
            ]
          ]
        ]
      }
    }
  ]
}