{
  "type": "FeatureCollection",
  "features": [
    {
      "type": "Feature",
      "properties": {},
      "geometry": {
        "type": "Polygon",
        "coordinates": [
          [
            [
              18.004189,
              59.34143
            ],
            [
              17.994919,
              59.33705
            ],
            [
              17.992172,
              59.329167
            ],
            [
              17.982731,
              59.323036
            ],
            [
              17.976894,
              59.317779
            ],
            [
              17.983932,
              59.313223
            ],
            [
              18.010712,
              59.311471
            ],
            [
              18.016891,
              59.30963
            ],
            [
              18.018973,
              59.309673
            ],
            [
              18.019896,
              59.309301
            ],
            [
              18.020947,
              59.309038
            ],
            [
              18.022578,
              59.309246
            ],
            [
              18.023844,
              59.30906
            ],
            [
              18.024509,
              59.309257
            ],
            [
              18.025475,
              59.308479
            ],
            [
              18.028908,
              59.307471
            ],
            [
              18.030581,
              59.30826
            ],
            [
              18.031569,
              59.307965
            ],
            [
              18.073969,
              59.302476
            ],
            [
              18.084354,
              59.304405
            ],
            [
              18.096886,
              59.307211
            ],
            [
              18.104353,
              59.307386
            ],
            [
              18.121004,
              59.309578
            ],
            [
              18.127871,
              59.310893
            ],
            [
              18.133278,
              59.311681
            ],
            [
              18.138256,
              59.313698
            ],
            [
              18.146667,
              59.315407
            ],
            [
              18.154392,
              59.319614
            ],
            [
              18.165035,
              59.323908
            ],
            [
              18.158855,
              59.332801
            ],
            [
              18.141775,
              59.344347
            ],
            [
              18.115168,
              59.358881
            ],
            [
              18.102293,
              59.365227
            ],
            [
              18.06736,
              59.37521
            ],
            [
              18.057232,
              59.375998
            ],
            [
              18.048625,
              59.37579
            ],
            [
              18.047568,
              59.375664
            ],
            [
              18.046278,
              59.375431
            ],
            [
              18.044003,
              59.375037
            ],
            [
              18.043263,
              59.374447
            ],
            [
              18.042748,
              59.373676
            ],
            [
              18.042405,
              59.372183
            ],
            [
              18.039336,
              59.371089
            ],
            [
              18.039722,
              59.36856
            ],
            [
              18.044529,
              59.363922
            ],
            [
              18.050194,
              59.356436
            ],
            [
              18.046085,
              59.355035
            ],
            [
              18.044722,
              59.352416
            ],
            [
              18.044829,
              59.351541
            ],
            [
              18.042705,
              59.350851
            ],
            [
              18.036268,
              59.354463
            ],
            [
              18.032513,
              59.353642
            ],
            [
              18.017149,
              59.35396
            ],
            [
              18.015518,
              59.354835
            ],
            [
              18.014617,
              59.354627
            ],
            [
              18.016033,
              59.352679
            ],
            [
              18.017406,
              59.349438
            ],
            [
              18.01878,
              59.346899
            ],
            [
              18.021891,
              59.345118
            ],
            [
              18.024659,
              59.342699
            ],
            [
              18.026547,
              59.340739
            ],
            [
              18.028007,
              59.339885
            ],
            [
              18.028865,
              59.338966
            ],
            [
              18.024402,
              59.339557
            ],
            [
              18.019209,
              59.339754
            ],
            [
              18.004189,
              59.34143
            ]
          ]
        ]
      }
    }
  ]
}